[
    {
        "OBJECT_NAME": "SL-8 R/B",
        "OBJECT_ID": "1975-112B",
        "EPOCH": "2026-06-20T10:46:38.751168",
        "MEAN_MOTION": 14.38247985,
        "ECCENTRICITY": 0.001684,
        "INCLINATION": 74.0589,
        "RA_OF_ASC_NODE": 189.8731,
        "ARG_OF_PERICENTER": 256.449,
        "MEAN_ANOMALY": 103.4789,
        "EPHEMERIS_TYPE": 0,
        "CLASSIFICATION_TYPE": "U",
        "NORAD_CAT_ID": 8459,
        "ELEMENT_SET_NO": 999,
        "REV_AT_EPOCH": 64664,
        "BSTAR": 7.3575e-05,
        "MEAN_MOTION_DOT": 1.98e-06,
        "MEAN_MOTION_DDOT": 0
    },
    {
        "OBJECT_NAME": "SL-3 R/B",
        "OBJECT_ID": "1977-057B",
        "EPOCH": "2026-06-20T10:47:01.292064",
        "MEAN_MOTION": 15.4794208,
        "ECCENTRICITY": 0.0005481,
        "INCLINATION": 97.5846,
        "RA_OF_ASC_NODE": 348.1477,
        "ARG_OF_PERICENTER": 270.3163,
        "MEAN_ANOMALY": 89.7459,
        "EPHEMERIS_TYPE": 0,
        "CLASSIFICATION_TYPE": "U",
        "NORAD_CAT_ID": 10114,
        "ELEMENT_SET_NO": 999,
        "REV_AT_EPOCH": 68421,
        "BSTAR": 0.0001844,
        "MEAN_MOTION_DOT": 9.524e-05,
        "MEAN_MOTION_DDOT": 0
    },
    {
        "OBJECT_NAME": "SEASAT 1",
        "OBJECT_ID": "1978-064A",
        "EPOCH": "2026-06-20T10:06:41.160672",
        "MEAN_MOTION": 14.46245232,
        "ECCENTRICITY": 0.0001736,
        "INCLINATION": 108.0177,
        "RA_OF_ASC_NODE": 341.0778,
        "ARG_OF_PERICENTER": 240.338,
        "MEAN_ANOMALY": 119.7593,
        "EPHEMERIS_TYPE": 0,
        "CLASSIFICATION_TYPE": "U",
        "NORAD_CAT_ID": 10967,
        "ELEMENT_SET_NO": 999,
        "REV_AT_EPOCH": 52136,
        "BSTAR": 8.1052e-05,
        "MEAN_MOTION_DOT": 1.53e-06,
        "MEAN_MOTION_DDOT": 0
    },
    {
        "OBJECT_NAME": "SL-14 R/B",
        "OBJECT_ID": "1979-011B",
        "EPOCH": "2026-06-19T23:48:53.666784",
        "MEAN_MOTION": 14.92016398,
        "ECCENTRICITY": 0.0017501,
        "INCLINATION": 82.5237,
        "RA_OF_ASC_NODE": 359.4916,
        "ARG_OF_PERICENTER": 77.0548,
        "MEAN_ANOMALY": 283.2625,
        "EPHEMERIS_TYPE": 0,
        "CLASSIFICATION_TYPE": "U",
        "NORAD_CAT_ID": 11267,
        "ELEMENT_SET_NO": 999,
        "REV_AT_EPOCH": 54403,
        "BSTAR": 3.5045721e-05,
        "MEAN_MOTION_DOT": 3.82e-06,
        "MEAN_MOTION_DDOT": 0
    },
    {
        "OBJECT_NAME": "SL-8 R/B",
        "OBJECT_ID": "1979-089B",
        "EPOCH": "2026-06-20T09:29:20.537376",
        "MEAN_MOTION": 14.42405235,
        "ECCENTRICITY": 0.0015063,
        "INCLINATION": 74.0692,
        "RA_OF_ASC_NODE": 260.9186,
        "ARG_OF_PERICENTER": 43.4442,
        "MEAN_ANOMALY": 316.7899,
        "EPHEMERIS_TYPE": 0,
        "CLASSIFICATION_TYPE": "U",
        "NORAD_CAT_ID": 11574,
        "ELEMENT_SET_NO": 999,
        "REV_AT_EPOCH": 45091,
        "BSTAR": 5.4296e-05,
        "MEAN_MOTION_DOT": 1.53e-06,
        "MEAN_MOTION_DDOT": 0
    },
    {
        "OBJECT_NAME": "SL-14 R/B",
        "OBJECT_ID": "1980-005B",
        "EPOCH": "2026-06-20T01:44:40.075584",
        "MEAN_MOTION": 14.91030703,
        "ECCENTRICITY": 0.00157648,
        "INCLINATION": 82.5137,
        "RA_OF_ASC_NODE": 210.1032,
        "ARG_OF_PERICENTER": 176.2237,
        "MEAN_ANOMALY": 183.9104,
        "EPHEMERIS_TYPE": 0,
        "CLASSIFICATION_TYPE": "U",
        "NORAD_CAT_ID": 11672,
        "ELEMENT_SET_NO": 999,
        "REV_AT_EPOCH": 49174,
        "BSTAR": 3.0691344e-05,
        "MEAN_MOTION_DOT": 3.3e-06,
        "MEAN_MOTION_DDOT": 0
    },
    {
        "OBJECT_NAME": "SL-8 R/B",
        "OBJECT_ID": "1981-003B",
        "EPOCH": "2026-06-20T07:46:52.995936",
        "MEAN_MOTION": 15.14312178,
        "ECCENTRICITY": 0.0250699,
        "INCLINATION": 82.9369,
        "RA_OF_ASC_NODE": 194.8563,
        "ARG_OF_PERICENTER": 180.2463,
        "MEAN_ANOMALY": 179.8693,
        "EPHEMERIS_TYPE": 0,
        "CLASSIFICATION_TYPE": "U",
        "NORAD_CAT_ID": 12139,
        "ELEMENT_SET_NO": 999,
        "REV_AT_EPOCH": 33019,
        "BSTAR": 0.00037423,
        "MEAN_MOTION_DOT": 0.00015379,
        "MEAN_MOTION_DDOT": 0
    },
    {
        "OBJECT_NAME": "SL-3 R/B",
        "OBJECT_ID": "1981-046B",
        "EPOCH": "2026-06-20T10:18:10.682784",
        "MEAN_MOTION": 15.44255582,
        "ECCENTRICITY": 0.0018212,
        "INCLINATION": 81.23,
        "RA_OF_ASC_NODE": 166.1632,
        "ARG_OF_PERICENTER": 27.0043,
        "MEAN_ANOMALY": 333.2144,
        "EPHEMERIS_TYPE": 0,
        "CLASSIFICATION_TYPE": "U",
        "NORAD_CAT_ID": 12465,
        "ELEMENT_SET_NO": 999,
        "REV_AT_EPOCH": 45427,
        "BSTAR": 0.00020483,
        "MEAN_MOTION_DOT": 9.505e-05,
        "MEAN_MOTION_DDOT": 0
    },
    {
        "OBJECT_NAME": "SL-3 R/B",
        "OBJECT_ID": "1981-103B",
        "EPOCH": "2026-06-20T09:44:59.751168",
        "MEAN_MOTION": 15.22306802,
        "ECCENTRICITY": 0.0011585,
        "INCLINATION": 81.1583,
        "RA_OF_ASC_NODE": 92.8515,
        "ARG_OF_PERICENTER": 304.2957,
        "MEAN_ANOMALY": 55.7178,
        "EPHEMERIS_TYPE": 0,
        "CLASSIFICATION_TYPE": "U",
        "NORAD_CAT_ID": 12904,
        "ELEMENT_SET_NO": 999,
        "REV_AT_EPOCH": 98885,
        "BSTAR": 0.00016417,
        "MEAN_MOTION_DOT": 3.813e-05,
        "MEAN_MOTION_DDOT": 0
    },
    {
        "OBJECT_NAME": "SL-3 R/B",
        "OBJECT_ID": "1982-013B",
        "EPOCH": "2026-06-20T09:02:33.118080",
        "MEAN_MOTION": 15.22803669,
        "ECCENTRICITY": 0.0021614,
        "INCLINATION": 81.1737,
        "RA_OF_ASC_NODE": 40.3138,
        "ARG_OF_PERICENTER": 189.9619,
        "MEAN_ANOMALY": 170.1188,
        "EPHEMERIS_TYPE": 0,
        "CLASSIFICATION_TYPE": "U",
        "NORAD_CAT_ID": 13068,
        "ELEMENT_SET_NO": 999,
        "REV_AT_EPOCH": 41997,
        "BSTAR": 0.00012659,
        "MEAN_MOTION_DOT": 3.004e-05,
        "MEAN_MOTION_DDOT": 0
    },
    {
        "OBJECT_NAME": "SL-3 R/B",
        "OBJECT_ID": "1982-039B",
        "EPOCH": "2026-06-20T09:54:57.029184",
        "MEAN_MOTION": 15.10556543,
        "ECCENTRICITY": 0.0028423,
        "INCLINATION": 81.1452,
        "RA_OF_ASC_NODE": 97.3585,
        "ARG_OF_PERICENTER": 345.3909,
        "MEAN_ANOMALY": 14.6491,
        "EPHEMERIS_TYPE": 0,
        "CLASSIFICATION_TYPE": "U",
        "NORAD_CAT_ID": 13154,
        "ELEMENT_SET_NO": 999,
        "REV_AT_EPOCH": 39714,
        "BSTAR": 0.00017199,
        "MEAN_MOTION_DOT": 2.886e-05,
        "MEAN_MOTION_DDOT": 0
    },
    {
        "OBJECT_NAME": "SL-3 R/B",
        "OBJECT_ID": "1982-079B",
        "EPOCH": "2026-06-20T09:29:10.290336",
        "MEAN_MOTION": 15.25810833,
        "ECCENTRICITY": 0.0023963,
        "INCLINATION": 81.1459,
        "RA_OF_ASC_NODE": 71.6927,
        "ARG_OF_PERICENTER": 174.6099,
        "MEAN_ANOMALY": 185.5398,
        "EPHEMERIS_TYPE": 0,
        "CLASSIFICATION_TYPE": "U",
        "NORAD_CAT_ID": 13403,
        "ELEMENT_SET_NO": 999,
        "REV_AT_EPOCH": 39335,
        "BSTAR": 0.00015341,
        "MEAN_MOTION_DOT": 3.98e-05,
        "MEAN_MOTION_DDOT": 0
    },
    {
        "OBJECT_NAME": "SL-14 R/B",
        "OBJECT_ID": "1982-092B",
        "EPOCH": "2026-06-20T10:31:07.765248",
        "MEAN_MOTION": 14.86749668,
        "ECCENTRICITY": 0.0019372,
        "INCLINATION": 82.5679,
        "RA_OF_ASC_NODE": 45.2613,
        "ARG_OF_PERICENTER": 324.0622,
        "MEAN_ANOMALY": 209.2871,
        "EPHEMERIS_TYPE": 0,
        "CLASSIFICATION_TYPE": "U",
        "NORAD_CAT_ID": 13553,
        "ELEMENT_SET_NO": 999,
        "REV_AT_EPOCH": 34419,
        "BSTAR": 2.8765e-05,
        "MEAN_MOTION_DOT": 2.81e-06,
        "MEAN_MOTION_DDOT": 0
    }
]